ONEWEB-0199             
1 48234U 21031AA  24313.68733253 -.00000105  00000+0 -31655-3 0  9998
2 48234  87.9031  46.1196 0001891 100.9608 259.1735 13.14505087171343
ONEWEB-0203             
1 48235U 21031AB  24313.67782050 -.00000208  00000+0 -59509-3 0  9999
2 48235  87.9031  46.1235 0001975  91.9692 268.1664 13.14504602171357
ONEWEB-0197             
1 48236U 21031AC  24313.65324240  .00000110  00000+0  26304-3 0  9998
2 48236  87.9033  46.1382 0001802 111.9959 248.1362 13.14504354171268
ONEWEB-0194             
1 48237U 21031AD  24313.63183509  .00000277  00000+0  71357-3 0  9990
2 48237  87.9032  46.1366 0001958  97.3904 262.7448 13.14504496171432
ONEWEB-0193             
1 48238U 21031AE  24313.64769410  .00000212  00000+0  53625-3 0  9990
2 48238  87.9032  46.1415 0001684  96.6511 263.4810 13.14503856171384
ONEWEB-0191             
1 48239U 21031AF  24313.65878944 -.00000009  00000+0 -59849-4 0  9996
2 48239  87.9030  46.1184 0001680  97.4030 262.7291 13.14504781171245
ONEWEB-0195             
1 48240U 21031AG  24313.63580437  .00000272  00000+0  69825-3 0  9997
2 48240  87.9029  46.1218 0001387  91.9451 268.1838 13.14500335171229
ONEWEB-0201             
1 48241U 21031AH  24313.62469370  .00000191  00000+0  48166-3 0  9994
2 48241  87.9033  46.1632 0001559 102.0508 258.0797 13.14505189171452
